NORAD_CAT_ID,OBJECT_NAME,OBJECT_TYPE,EPOCH,MEAN_MOTION,ECCENTRICITY,INCLINATION,RA_OF_ASC_NODE,ARG_OF_PERICENTER,MEAN_ANOMALY,BSTAR,MEAN_MOTION_DOT,MEAN_MOTION_DDOT,TLE_LINE0,TLE_LINE1,TLE_LINE2,SEMIMAJOR_AXIS,PERIOD,APOGEE,PERIGEE,DECAYED
53562.0,STARLINK-4565,PAYLOAD,2024-02-09 12:22:29,15.0884276,0.0001422,53.2161,222.3322,95.0234,265.092,7.3225e-05,8.78e-06,0.0,0 STARLINK-4565,1 53562U 22101AM  24040.51562032  .00000878  00000-0  73225-4 0  9997,2 53562  53.2161 222.3322 0001422  95.0234 265.0920 15.08842760 81834,6917.872,95.437,540.721,538.753,0.0
53562.0,STARLINK-4565,PAYLOAD,2024-02-10 12:13:17,15.08832674,0.0001288,53.2157,217.8722,92.7889,267.325,6.9654e-05,8.21e-06,0.0,0 STARLINK-4565,1 53562U 22101AM  24041.50922837  .00000821  00000-0  69654-4 0  9999,2 53562  53.2157 217.8722 0001288  92.7889 267.3250 15.08832674 81982,6917.903,95.438,540.659,538.877,0.0
53562.0,STARLINK-4565,PAYLOAD,2024-02-10 18:34:50,15.08832059,0.0001256,53.216,216.6827,93.8033,266.3103,3.327e-05,2.42e-06,0.0,0 STARLINK-4565,1 53562U 22101AM  24041.77419112  .00000242  00000-0  33270-4 0  9997,2 53562  53.2160 216.6827 0001256  93.8033 266.3103 15.08832059 82688,6917.905,95.438,540.639,538.901,0.0
53562.0,STARLINK-4565,PAYLOAD,2024-02-11 12:04:04,15.08842931,0.000116,53.2156,213.411,83.8888,276.2237,4.8581e-05,4.85e-06,0.0,0 STARLINK-4565,1 53562U 22101AM  24042.50282456  .00000485  00000-0  48581-4 0  9998,2 53562  53.2156 213.4110 0001160  83.8888 276.2237 15.08842931 82132,6917.871,95.437,540.539,538.934,0.0
53562.0,STARLINK-4565,PAYLOAD,2024-02-11 18:25:35,15.08852607,0.0001403,53.2168,212.2208,96.1056,264.0096,0.00011496,1.543e-05,0.0,0 STARLINK-4565,1 53562U 22101AM  24042.76777549  .00001543  00000-0  11496-3 0  9998,2 53562  53.2168 212.2208 0001403  96.1056 264.0096 15.08852607 82177,6917.842,95.437,540.677,538.736,0.0
53562.0,STARLINK-4565,PAYLOAD,2024-02-12 10:19:28,15.08836087,0.0001304,53.2164,209.2473,89.3929,270.7212,9.3453e-05,1.2e-05,0.0,0 STARLINK-4565,1 53562U 22101AM  24043.43018726  .00001200  00000-0  93453-4 0  9992,2 53562  53.2164 209.2473 0001304  89.3929 270.7212 15.08836087 82275,6917.892,95.438,540.659,538.855,0.0
53562.0,STARLINK-4565,PAYLOAD,2024-02-12 18:16:23,15.08838235,0.0001357,53.2166,207.7603,80.5878,279.5268,0.00011066,1.474e-05,0.0,0 STARLINK-4565,1 53562U 22101AM  24043.76138769  .00001474  00000-0  11066-3 0  9990,2 53562  53.2166 207.7603 0001357  80.5878 279.5268 15.08838235 82982,6917.886,95.438,540.69,538.812,0.0
53562.0,STARLINK-4565,PAYLOAD,2024-02-13 14:56:24,15.08843104,0.0001328,53.2165,203.8939,88.9565,271.1579,-3.908e-05,-9.1e-06,0.0,0 STARLINK-4565,1 53562U 22101AM  24044.62250962 -.00000910  00000-0 -39080-4 0  9999,2 53562  53.2165 203.8939 0001328  88.9565 271.1579 15.08843104 83113,6917.871,95.437,540.655,538.817,0.0
53562.0,STARLINK-4565,PAYLOAD,2024-02-13 19:42:33,15.08849842,0.0001568,53.2174,203.001,94.9366,265.1805,1.1014e-05,-1.13e-06,0.0,0 STARLINK-4565,1 53562U 22101AM  24044.82122362 -.00000113  00000-0  11014-4 0  9994,2 53562  53.2174 203.0010 0001568  94.9366 265.1805 15.08849842 82486,6917.85,95.437,540.8,538.631,0.0
53562.0,STARLINK-4565,PAYLOAD,2024-02-14 10:01:02,15.088347,0.0001349,53.2159,200.3252,94.0413,266.0734,2.1269e-05,5.1e-07,0.0,0 STARLINK-4565,1 53562U 22101AM  24045.41739345  .00000051  00000-0  21269-4 0  9998,2 53562  53.2159 200.3252 0001349  94.0413 266.0734 15.08834700 82576,6917.897,95.438,540.695,538.828,0.0
53562.0,STARLINK-4565,PAYLOAD,2024-02-14 14:47:12,15.0883641,0.0001597,53.2164,199.4336,104.2414,255.8756,3.8777e-05,3.29e-06,0.0,0 STARLINK-4565,1 53562U 22101AM  24045.61611278  .00000329  00000-0  38777-4 0  9994,2 53562  53.2164 199.4336 0001597 104.2414 255.8756 15.08836410 83260,6917.891,95.438,540.861,538.652,0.0
53562.0,STARLINK-4565,PAYLOAD,2024-02-14 16:22:35,15.08835863,0.0001516,53.2165,199.1369,92.3172,267.7994,4.2438e-05,3.87e-06,0.0,0 STARLINK-4565,1 53562U 22101AM  24045.68235389  .00000387  00000-0  42438-4 0  9999,2 53562  53.2165 199.1369 0001516  92.3172 267.7994 15.08835863 83271,6917.893,95.438,540.807,538.709,0.0
53562.0,STARLINK-4565,PAYLOAD,2024-02-15 14:37:59,15.088409,0.0001535,53.2168,194.9747,87.115,273.0018,0.00011209,1.496e-05,0.0,0 STARLINK-4565,1 53562U 22101AM  24046.60971150  .00001496  00000-0  11209-3 0  9998,2 53562  53.2168 194.9747 0001535  87.1150 273.0018 15.08840900 83417,6917.878,95.437,540.805,538.681,0.0
53562.0,STARLINK-4565,PAYLOAD,2024-02-15 19:24:07,15.08851316,0.0001506,53.2173,194.0805,90.1834,269.933,9.966e-05,1.299e-05,0.0,0 STARLINK-4565,1 53562U 22101AM  24046.80842436  .00001299  00000-0  99660-4 0  9993,2 53562  53.2173 194.0805 0001506  90.1834 269.9330 15.08851316 82783,6917.846,95.437,540.753,538.669,0.0
53562.0,STARLINK-4565,PAYLOAD,2024-02-16 09:42:36,15.08841455,0.000153,53.2171,191.4056,87.2955,272.8212,8.7074e-05,1.098e-05,0.0,0 STARLINK-4565,1 53562U 22101AM  24047.40459187  .00001098  00000-0  87074-4 0  9990,2 53562  53.2171 191.4056 0001530  87.2955 272.8212 15.08841455 82873,6917.876,95.437,540.799,538.683,0.0
53562.0,STARLINK-4565,PAYLOAD,2024-02-16 14:28:45,15.08843932,0.000153,53.2167,190.5144,84.4211,275.6956,0.00011486,1.541e-05,0.0,0 STARLINK-4565,1 53562U 22101AM  24047.60330916  .00001541  00000-0  11486-3 0  9996,2 53562  53.2167 190.5144 0001530  84.4211 275.6956 15.08843932 83565,6917.868,95.437,540.792,538.675,0.0
53562.0,STARLINK-4565,PAYLOAD,2024-02-16 16:04:08,15.08845054,0.0001562,53.2164,190.2168,85.0335,275.0835,0.00012525,1.706e-05,0.0,0 STARLINK-4565,1 53562U 22101AM  24047.66954824  .00001706  00000-0  12525-3 0  9990,2 53562  53.2164 190.2168 0001562  85.0335 275.0835 15.08845054 83572,6917.865,95.437,540.811,538.649,0.0
53562.0,STARLINK-4565,PAYLOAD,2024-02-17 09:33:24,15.08836232,0.0001605,53.2171,186.945,88.6689,271.4487,9.353e-05,1.201e-05,0.0,0 STARLINK-4565,1 53562U 22101AM  24048.39819509  .00001201  00000-0  93530-4 0  9997,2 53562  53.2171 186.9450 0001605  88.6689 271.4487 15.08836232 83026,6917.892,95.438,540.867,538.647,0.0
53562.0,STARLINK-4565,PAYLOAD,2024-02-17 14:19:33,15.08834239,0.0001514,53.2156,186.0534,85.7059,274.4106,2.3121e-05,8e-07,0.0,0 STARLINK-4565,1 53562U 22101AM  24048.59691802  .00000080  00000-0  23121-4 0  9996,2 53562  53.2156 186.0534 0001514  85.7059 274.4106 15.08834239 83713,6917.898,95.438,540.81,538.716,0.0
53562.0,STARLINK-4565,PAYLOAD,2024-02-17 15:54:56,15.08839434,0.0001406,53.2152,185.7534,95.9963,264.119,2.73e-05,1.47e-06,0.0,0 STARLINK-4565,1 53562U 22101AM  24048.66315404  .00000147  00000-0  27300-4 0  9992,2 53562  53.2152 185.7534 0001406  95.9963 264.1190 15.08839434 83724,6917.882,95.438,540.72,538.774,0.0
53562.0,STARLINK-4565,PAYLOAD,2024-02-18 14:10:19,15.08845867,0.000154,53.2165,181.5943,94.0278,266.089,9.9213e-05,1.292e-05,0.0,0 STARLINK-4565,1 53562U 22101AM  24049.59050873  .00001292  00000-0  99213-4 0  9995,2 53562  53.2165 181.5943 0001540  94.0278 266.0890 15.08845867 83864,6917.862,95.437,540.793,538.662,0.0
53562.0,STARLINK-4565,PAYLOAD,2024-02-18 15:45:42,15.08847859,0.0001434,53.2168,181.2992,92.5481,267.5675,0.00013902,1.926e-05,0.0,0 STARLINK-4565,1 53562U 22101AM  24049.65674663  .00001926  00000-0  13902-3 0  9995,2 53562  53.2168 181.2992 0001434  92.5481 267.5675 15.08847859 83218,6917.856,95.437,540.713,538.729,0.0
53562.0,STARLINK-4565,PAYLOAD,2024-02-19 01:18:02,15.08843716,0.0001381,53.2166,179.5117,83.3702,276.7447,-2.1147e-05,-6.25e-06,0.0,0 STARLINK-4565,1 53562U 22101AM  24050.05419118 -.00000625  00000-0 -21147-4 0  9991,2 53562  53.2166 179.5117 0001381  83.3702 276.7447 15.08843716 83273,6917.869,95.437,540.689,538.779,0.0
53562.0,STARLINK-4565,PAYLOAD,2024-02-19 12:25:45,15.08828627,0.0001561,53.2182,177.4336,103.0593,257.0573,5.847e-05,6.42e-06,0.0,0 STARLINK-4565,1 53562U 22101AM  24050.51788305  .00000642  00000-0  58470-4 0  9995,2 53562  53.2182 177.4336 0001561 103.0593 257.0573 15.08828627 83343,6917.915,95.438,540.86,538.7,0.0
53562.0,STARLINK-4565,PAYLOAD,2024-02-19 14:01:08,15.0883009,0.0001533,53.2178,177.1354,107.2173,252.8987,4.9419e-05,4.98e-06,0.0,0 STARLINK-4565,1 53562U 22101AM  24050.58412224  .00000498  00000-0  49419-4 0  9998,2 53562  53.2178 177.1354 0001533 107.2173 252.8987 15.08830090 84018,6917.911,95.438,540.836,538.715,0.0
53562.0,STARLINK-4565,PAYLOAD,2024-02-19 15:36:31,15.0883029,0.0001644,53.2182,176.8386,109.1135,251.0036,6.237e-05,7.04e-06,0.0,0 STARLINK-4565,1 53562U 22101AM  24050.65036206  .00000704  00000-0  62370-4 0  9999,2 53562  53.2182 176.8386 0001644 109.1135 251.0036 15.08830290 84025,6917.91,95.438,540.912,538.638,0.0
53562.0,STARLINK-4565,PAYLOAD,2024-02-20 01:08:49,15.08838089,0.000139,53.2177,175.0526,98.5884,261.5266,5.7513e-05,6.27e-06,0.0,0 STARLINK-4565,1 53562U 22101AM  24051.04779759  .00000627  00000-0  57513-4 0  9997,2 53562  53.2177 175.0526 0001390  98.5884 261.5266 15.08838089 83424,6917.886,95.438,540.713,538.79,0.0
53562.0,STARLINK-4565,PAYLOAD,2024-02-20 13:51:54,15.08842552,0.0001434,53.2173,172.6734,93.412,266.7036,1.1601e-05,-1.03e-06,0.0,0 STARLINK-4565,1 53562U 22101AM  24051.57771793 -.00000103  00000-0  11601-4 0  9993,2 53562  53.2173 172.6734 0001434  93.4120 266.7036 15.08842552 84164,6917.873,95.437,540.73,538.746,0.0
53562.0,STARLINK-4565,PAYLOAD,2024-02-20 15:27:17,15.08842683,0.0001498,53.2175,172.3762,94.9673,265.149,3.4121e-05,2.55e-06,0.0,0 STARLINK-4565,1 53562U 22101AM  24051.64395735  .00000255  00000-0  34121-4 0  9998,2 53562  53.2175 172.3762 0001498  94.9673 265.1490 15.08842683 84176,6917.872,95.437,540.773,538.701,0.0
53562.0,STARLINK-4565,PAYLOAD,2024-02-21 12:07:18,15.08836265,0.0001565,53.2174,168.5099,92.9209,267.1962,0.00013158,1.807e-05,0.0,0 STARLINK-4565,1 53562U 22101AM  24052.50508059  .00001807  00000-0  13158-3 0  9999,2 53562  53.2174 168.5099 0001565  92.9209 267.1962 15.08836265 83649,6917.892,95.438,540.839,538.674,0.0
